NORAD_CAT_ID,OBJECT_NAME,OBJECT_TYPE,EPOCH,MEAN_MOTION,ECCENTRICITY,INCLINATION,RA_OF_ASC_NODE,ARG_OF_PERICENTER,MEAN_ANOMALY,BSTAR,MEAN_MOTION_DOT,MEAN_MOTION_DDOT,TLE_LINE0,TLE_LINE1,TLE_LINE2,SEMIMAJOR_AXIS,PERIOD,APOGEE,PERIGEE,DECAYED
55300.0,STARLINK-5308,PAYLOAD,2024-06-30 21:31:12,14.98332223,0.0002992,69.9999,139.4444,269.3204,90.7612,-3.3504e-05,-4.93e-06,0.0,0 STARLINK-5308,1 55300U 23010AH  24182.89667801 -.00000493  00000-0 -33504-4 0  9998,2 55300  69.9999 139.4444 0002992 269.3204  90.7612 14.98332223 80575,6950.186,96.107,574.131,569.972,0.0
55300.0,STARLINK-5308,PAYLOAD,2024-07-01 05:31:52,14.98340023,0.0002992,69.9998,138.6018,269.2764,90.8052,-3.205e-06,-1.31e-06,0.0,0 STARLINK-5308,1 55300U 23010AH  24183.23047124 -.00000131  00000-0 -32050-5 0  9992,2 55300  69.9998 138.6018 0002992 269.2764  90.8052 14.98340023 80624,6950.162,96.106,574.106,569.947,0.0
55300.0,STARLINK-5308,PAYLOAD,2024-07-01 07:08:00,14.98341217,0.0002983,69.9998,138.4334,269.3426,90.7391,1.2129e-05,5.2e-07,0.0,0 STARLINK-5308,1 55300U 23010AH  24183.29722970  .00000052  00000-0  12129-4 0  9991,2 55300  69.9998 138.4334 0002983 269.3426  90.7391 14.98341217 80945,6950.158,96.106,574.096,569.95,0.0
55300.0,STARLINK-5308,PAYLOAD,2024-07-01 21:33:14,14.98321629,0.0002913,70.0002,136.9181,271.2107,88.8718,6.5646e-05,6.9e-06,0.0,0 STARLINK-5308,1 55300U 23010AH  24183.89807987  .00000690  00000-0  65646-4 0  9999,2 55300  70.0002 136.9181 0002913 271.2107  88.8718 14.98321629 80720,6950.219,96.108,574.108,570.059,0.0
55300.0,STARLINK-5308,PAYLOAD,2024-07-02 13:34:34,14.98325925,0.0002933,70.0002,135.2358,269.8095,90.2728,2.171e-05,1.66e-06,0.0,0 STARLINK-5308,1 55300U 23010AH  24184.56568052  .00000166  00000-0  21710-4 0  9993,2 55300  70.0002 135.2358 0002933 269.8095  90.2728 14.98325925 81136,6950.205,96.107,574.109,570.032,0.0
55300.0,STARLINK-5308,PAYLOAD,2024-07-02 21:35:14,14.98332508,0.000291,70.0002,134.3944,269.542,90.5406,-5.7658e-05,-7.81e-06,0.0,0 STARLINK-5308,1 55300U 23010AH  24184.89947909 -.00000781  00000-0 -57658-4 0  9996,2 55300  70.0002 134.3944 0002910 269.5420  90.5406 14.98332508 80872,6950.185,96.107,574.073,570.028,0.0
55300.0,STARLINK-5308,PAYLOAD,2024-07-03 21:37:15,14.98326326,0.0002893,70.0002,131.8697,270.8668,89.2159,2.0459e-05,1.51e-06,0.0,0 STARLINK-5308,1 55300U 23010AH  24185.90087908  .00000151  00000-0  20459-4 0  9991,2 55300  70.0002 131.8697 0002893 270.8668  89.2159 14.98326326 81331,6950.204,96.107,574.08,570.059,0.0
55300.0,STARLINK-5308,PAYLOAD,2024-07-04 04:01:48,14.98328803,0.000287,70.0003,131.1965,270.6466,89.4364,4.5739e-05,4.53e-06,0.0,0 STARLINK-5308,1 55300U 23010AH  24186.16791714  .00000453  00000-0  45739-4 0  9990,2 55300  70.0003 131.1965 0002870 270.6466  89.4364 14.98328803 81064,6950.197,96.107,574.056,570.067,0.0
55300.0,STARLINK-5308,PAYLOAD,2024-07-04 05:37:56,14.98329897,0.0002864,70.0003,131.0282,270.9324,89.1507,5.6476e-05,5.81e-06,0.0,0 STARLINK-5308,1 55300U 23010AH  24186.23467618  .00000581  00000-0  56476-4 0  9993,2 55300  70.0003 131.0282 0002864 270.9324  89.1507 14.98329897 81389,6950.193,96.107,574.049,570.068,0.0
55300.0,STARLINK-5308,PAYLOAD,2024-07-04 23:15:24,14.98333032,0.0002807,70.0004,129.1766,269.7302,90.3536,2.7332e-05,2.33e-06,0.0,0 STARLINK-5308,1 55300U 23010AH  24186.96903404  .00000233  00000-0  27332-4 0  9994,2 55300  70.0004 129.1766 0002807 269.7302  90.3536 14.98333032 81498,6950.184,96.107,573.999,570.098,0.0
55300.0,STARLINK-5308,PAYLOAD,2024-07-05 04:03:48,14.98334651,0.0002752,70.0004,128.6714,266.5459,93.5385,3.5809e-05,3.34e-06,0.0,0 STARLINK-5308,1 55300U 23010AH  24187.16931198  .00000334  00000-0  35809-4 0  9998,2 55300  70.0004 128.6714 0002752 266.5459  93.5385 14.98334651 81217,6950.179,96.107,573.956,570.131,0.0
55300.0,STARLINK-5308,PAYLOAD,2024-07-05 13:40:37,14.98333829,0.0002817,70.0004,127.6616,267.7949,92.2888,-3.5676e-05,-5.19e-06,0.0,0 STARLINK-5308,1 55300U 23010AH  24187.56987296 -.00000519  00000-0 -35676-4 0  9991,2 55300  70.0004 127.6616 0002817 267.7949  92.2888 14.98333829 81586,6950.181,96.107,574.004,570.088,0.0
55300.0,STARLINK-5308,PAYLOAD,2024-07-05 21:41:17,14.98327136,0.0002732,69.9999,126.8205,273.4869,86.5977,-5.309e-06,-1.56e-06,0.0,0 STARLINK-5308,1 55300U 23010AH  24187.90367696 -.00000156  00000-0 -53090-5 0  9993,2 55300  69.9999 126.8205 0002732 273.4869  86.5977 14.98327136 81637,6950.202,96.107,573.966,570.168,0.0
55300.0,STARLINK-5308,PAYLOAD,2024-07-06 04:05:50,14.98326039,0.0002801,70.0003,126.1455,267.7735,92.3103,-4.3348e-05,-6.1e-06,0.0,0 STARLINK-5308,1 55300U 23010AH  24188.17071858 -.00000610  00000-0 -43348-4 0  9994,2 55300  70.0003 126.1455 0002801 267.7735  92.3103 14.98326039 81368,6950.205,96.107,574.017,570.123,0.0
55300.0,STARLINK-5308,PAYLOAD,2024-07-06 13:42:38,14.9832858,0.0002862,70.0003,125.1357,268.0103,92.0728,-4.4653e-05,-6.26e-06,0.0,0 STARLINK-5308,1 55300U 23010AH  24188.57127716 -.00000626  00000-0 -44653-4 0  9990,2 55300  70.0003 125.1357 0002862 268.0103  92.0728 14.98328580 81732,6950.197,96.107,574.051,570.073,0.0
55300.0,STARLINK-5308,PAYLOAD,2024-07-06 21:43:18,14.98328329,0.0002869,70.0001,124.2943,267.9586,92.1244,-5.8292e-05,-7.88e-06,0.0,0 STARLINK-5308,1 55300U 23010AH  24188.90507791 -.00000788  00000-0 -58292-4 0  9995,2 55300  70.0001 124.2943 0002869 267.9586  92.1244 14.98328329 81781,6950.198,96.107,574.057,570.069,0.0
55300.0,STARLINK-5308,PAYLOAD,2024-07-07 04:07:50,14.9833075,0.000293,70.0002,123.6217,269.7741,90.3082,-3.2832e-05,-4.85e-06,0.0,0 STARLINK-5308,1 55300U 23010AH  24189.17211586 -.00000485  00000-0 -32832-4 0  9995,2 55300  70.0002 123.6217 0002930 269.7741  90.3082 14.98330750 81513,6950.191,96.107,574.092,570.019,0.0
55300.0,STARLINK-5308,PAYLOAD,2024-07-07 05:43:58,14.98331563,0.0002955,70.0001,123.4534,269.941,90.141,-2.2358e-05,-3.6e-06,0.0,0 STARLINK-5308,1 55300U 23010AH  24189.23887505 -.00000360  00000-0 -22358-4 0  9996,2 55300  70.0001 123.4534 0002955 269.9410  90.1410 14.98331563 81835,6950.188,96.107,574.107,569.999,0.0
55300.0,STARLINK-5308,PAYLOAD,2024-07-08 12:10:31,14.98334254,0.0002721,70.0011,120.256,270.2919,89.7928,-9.2351e-05,-1.195e-05,0.0,0 STARLINK-5308,1 55300U 23010AH  24190.50731368 -.00001195  00000-0 -92351-4 0  9990,2 55300  70.0011 120.2560 0002721 270.2919  89.7928 14.98334254 81715,6950.18,96.107,573.936,570.154,0.0
55300.0,STARLINK-5308,PAYLOAD,2024-07-08 21:47:20,14.98325549,0.000278,70.001,119.2466,271.4316,88.6524,9.4113e-06,1.9e-07,0.0,0 STARLINK-5308,1 55300U 23010AH  24190.90787722  .00000019  00000-0  94113-5 0  9990,2 55300  70.0010 119.2466 0002780 271.4316  88.6524 14.98325549 82084,6950.207,96.107,574.004,570.139,0.0
55300.0,STARLINK-5308,PAYLOAD,2024-07-09 12:12:33,14.98328796,0.0002747,70.0004,117.7307,271.2449,88.8395,-2.3335e-05,-3.71e-06,0.0,0 STARLINK-5308,1 55300U 23010AH  24191.50871618 -.00000371  00000-0 -23335-4 0  9995,2 55300  70.0004 117.7307 0002747 271.2449  88.8395 14.98328796 81862,6950.197,96.107,573.971,570.152,0.0
55300.0,STARLINK-5308,PAYLOAD,2024-07-09 21:49:21,14.98330486,0.0002776,70.0005,116.7216,267.5333,92.5508,-4.1266e-05,-5.85e-06,0.0,0 STARLINK-5308,1 55300U 23010AH  24191.90927520 -.00000585  00000-0 -41266-4 0  9993,2 55300  70.0005 116.7216 0002776 267.5333  92.5508 14.98330486 82232,6950.191,96.107,573.986,570.127,0.0
55300.0,STARLINK-5308,PAYLOAD,2024-07-10 12:14:33,14.98333818,0.0002906,70.0001,115.2064,269.6635,90.4191,-7.4423e-05,-9.81e-06,0.0,0 STARLINK-5308,1 55300U 23010AH  24192.51011294 -.00000981  00000-0 -74423-4 0  9994,2 55300  70.0001 115.2064 0002906 269.6635  90.4191 14.98333818 82019,6950.181,96.107,574.066,570.026,0.0
55300.0,STARLINK-5308,PAYLOAD,2024-07-10 21:51:22,14.98326441,0.0002709,70.0005,114.1967,267.3476,92.7373,1.9352e-05,1.38e-06,0.0,0 STARLINK-5308,1 55300U 23010AH  24192.91067595  .00000138  00000-0  19352-4 0  9995,2 55300  70.0005 114.1967 0002709 267.3476  92.7373 14.98326441 82383,6950.204,96.107,573.952,570.186,0.0
55300.0,STARLINK-5308,PAYLOAD,2024-07-11 04:15:54,14.98331062,0.0002738,70.0003,113.5231,266.8332,93.2514,3.514e-05,3.26e-06,0.0,0 STARLINK-5308,1 55300U 23010AH  24193.17771265  .00000326  00000-0  35140-4 0  9992,2 55300  70.0003 113.5231 0002738 266.8332  93.2514 14.98331062 82428,6950.19,96.107,573.958,570.152,0.0
55300.0,STARLINK-5308,PAYLOAD,2024-07-12 04:17:55,14.98328643,0.0002794,70.0004,110.999,266.7038,93.3801,6.2045e-06,-1.9e-07,0.0,0 STARLINK-5308,1 55300U 23010AH  24194.17911504 -.00000019  00000-0  62045-5 0  9990,2 55300  70.0004 110.9990 0002794 266.7038  93.3801 14.98328643 82269,6950.197,96.107,574.004,570.12,0.0
55300.0,STARLINK-5308,PAYLOAD,2024-07-12 12:18:35,14.98330438,0.0002828,70.0003,110.1556,269.704,90.3794,-2.9226e-05,-4.42e-06,0.0,0 STARLINK-5308,1 55300U 23010AH  24194.51291473 -.00000442  00000-0 -29226-4 0  9998,2 55300  70.0003 110.1556 0002828 269.7040  90.3794 14.98330438 82625,6950.192,96.107,574.022,570.091,0.0
55300.0,STARLINK-5308,PAYLOAD,2024-07-12 21:55:24,14.98327547,0.0002879,70.0002,109.1457,270.438,89.6449,1.4234e-05,7.7e-07,0.0,0 STARLINK-5308,1 55300U 23010AH  24194.91347540  .00000077  00000-0  14234-4 0  9994,2 55300  70.0002 109.1457 0002879 270.4380  89.6449 14.98327547 82685,6950.2,96.107,574.066,570.065,0.0
55300.0,STARLINK-5308,PAYLOAD,2024-07-13 04:19:56,14.98332417,0.0002947,70.0003,108.4731,269.8862,90.1959,4.342e-05,4.25e-06,0.0,0 STARLINK-5308,1 55300U 23010AH  24195.18051141  .00000425  00000-0  43420-4 0  9999,2 55300  70.0003 108.4731 0002947 269.8862  90.1959 14.98332417 82412,6950.185,96.107,574.099,570.002,0.0
55300.0,STARLINK-5308,PAYLOAD,2024-07-13 21:57:24,14.98338781,0.0002897,70.0007,106.6216,270.8534,89.2293,-0.00011625,-1.48e-05,0.0,0 STARLINK-5308,1 55300U 23010AH  24195.91487263 -.00001480  00000-0 -11625-3 0  9993,2 55300  70.0007 106.6216 0002897 270.8534  89.2293 14.98338781 82832,6950.166,96.106,574.044,570.017,0.0
